STARLETTE               
1 07646U 75010A   26073.60503944 -.00000136  00000+0  68338-5 0  9998
2 07646  49.8221 117.9274 0205583 110.5800 251.7277 13.82349232581451
LAGEOS 1                
1 08820U 76039A   26073.48710250 -.00000001  00000+0  00000+0 0  9998
2 08820 109.8158 146.9251 0044665 322.5670  22.2813  6.38664874907084
AJISAI (EGS)            
1 16908U 86061A   26073.62549173 -.00000085  00000+0  83785-4 0  9998
2 16908  50.0082  78.1692 0011284 299.7390 180.1420 12.44515690468617
COSMOS 1989 (ETALON 1)  
1 19751U 89001C   26073.07896895  .00000054  00000+0  00000+0 0  9998
2 19751  64.8905  75.4467 0023419 217.5929 205.2239  2.13156113289346
COSMOS 2024 (ETALON 2)  
1 20026U 89039C   26073.48813689 -.00000014  00000+0  00000+0 0  9998
2 20026  64.9913 313.8001 0020465 213.3549 304.6227  2.13204639286486
LAGEOS 2                
1 22195U 92070B   26073.53855153 -.00000009  00000+0  00000+0 0  9998
2 22195  52.6765 326.4812 0137729 145.9374  26.4763  6.47293407789295
STELLA                  
1 22824U 93061B   26073.64779091 -.00000029  00000+0  67356-5 0  9991
2 22824  98.7831 137.5178 0006973 144.3661 340.1166 14.27467718691282
LARETS                  
1 27944U 03042F   26073.58326850  .00000102  00000+0  29269-4 0  9994
2 27944  98.4025 233.8589 0011723 336.9128  23.1545 14.63850100199524
LARES                   
1 38077U 12006A   26073.60525575 -.00000021  00000+0  11063-3 0  9994
2 38077  69.4881  93.8016 0007180 144.8451 215.3050 12.54932283645205
LARES-2                 
1 53105U 22080A   26065.02398958 -.00000028  00000+0  00000+0 0  9998
2 53105  70.1755 340.7064 0005309 356.7815   3.2821  6.38965015 85076
