[{"OBJECT_NAME":"STARLETTE","OBJECT_ID":"1975-010A","EPOCH":"2026-03-14T14:31:15.407616","MEAN_MOTION":13.82349232,"ECCENTRICITY":0.02055832,"INCLINATION":49.8221,"RA_OF_ASC_NODE":117.9274,"ARG_OF_PERICENTER":110.58,"MEAN_ANOMALY":251.7277,"EPHEMERIS_TYPE":0,"CLASSIFICATION_TYPE":"U","NORAD_CAT_ID":7646,"ELEMENT_SET_NO":999,"REV_AT_EPOCH":58145,"BSTAR":6.833772e-6,"MEAN_MOTION_DOT":-1.36e-6,"MEAN_MOTION_DDOT":0},{"OBJECT_NAME":"LAGEOS 1","OBJECT_ID":"1976-039A","EPOCH":"2026-03-14T11:41:25.656000","MEAN_MOTION":6.38664874,"ECCENTRICITY":0.00446652,"INCLINATION":109.8158,"RA_OF_ASC_NODE":146.9251,"ARG_OF_PERICENTER":322.567,"MEAN_ANOMALY":22.2813,"EPHEMERIS_TYPE":0,"CLASSIFICATION_TYPE":"U","NORAD_CAT_ID":8820,"ELEMENT_SET_NO":999,"REV_AT_EPOCH":90708,"BSTAR":0,"MEAN_MOTION_DOT":-1.0e-8,"MEAN_MOTION_DDOT":0},{"OBJECT_NAME":"AJISAI (EGS)","OBJECT_ID":"1986-061A","EPOCH":"2026-03-14T15:00:42.485472","MEAN_MOTION":12.4451569,"ECCENTRICITY":0.00112849,"INCLINATION":50.0082,"RA_OF_ASC_NODE":78.1692,"ARG_OF_PERICENTER":299.739,"MEAN_ANOMALY":180.142,"EPHEMERIS_TYPE":0,"CLASSIFICATION_TYPE":"U","NORAD_CAT_ID":16908,"ELEMENT_SET_NO":999,"REV_AT_EPOCH":46861,"BSTAR":8.3784613e-5,"MEAN_MOTION_DOT":-8.5e-7,"MEAN_MOTION_DDOT":0},{"OBJECT_NAME":"COSMOS 1989 (ETALON 1)","OBJECT_ID":"1989-001C","EPOCH":"2026-03-14T01:53:42.917280","MEAN_MOTION":2.13156113,"ECCENTRICITY":0.00234193,"INCLINATION":64.8905,"RA_OF_ASC_NODE":75.4467,"ARG_OF_PERICENTER":217.5929,"MEAN_ANOMALY":205.2239,"EPHEMERIS_TYPE":0,"CLASSIFICATION_TYPE":"U","NORAD_CAT_ID":19751,"ELEMENT_SET_NO":999,"REV_AT_EPOCH":28934,"BSTAR":0,"MEAN_MOTION_DOT":5.4e-7,"MEAN_MOTION_DDOT":0},{"OBJECT_NAME":"COSMOS 2024 (ETALON 2)","OBJECT_ID":"1989-039C","EPOCH":"2026-03-14T11:42:55.027296","MEAN_MOTION":2.13204639,"ECCENTRICITY":0.00204659,"INCLINATION":64.9913,"RA_OF_ASC_NODE":313.8001,"ARG_OF_PERICENTER":213.3549,"MEAN_ANOMALY":304.6227,"EPHEMERIS_TYPE":0,"CLASSIFICATION_TYPE":"U","NORAD_CAT_ID":20026,"ELEMENT_SET_NO":999,"REV_AT_EPOCH":28648,"BSTAR":0,"MEAN_MOTION_DOT":-1.4e-7,"MEAN_MOTION_DDOT":0},{"OBJECT_NAME":"LAGEOS 2","OBJECT_ID":"1992-070B","EPOCH":"2026-03-14T12:55:30.852192","MEAN_MOTION":6.47293407,"ECCENTRICITY":0.01377292,"INCLINATION":52.6765,"RA_OF_ASC_NODE":326.4812,"ARG_OF_PERICENTER":145.9374,"MEAN_ANOMALY":26.4763,"EPHEMERIS_TYPE":0,"CLASSIFICATION_TYPE":"U","NORAD_CAT_ID":22195,"ELEMENT_SET_NO":999,"REV_AT_EPOCH":78929,"BSTAR":0,"MEAN_MOTION_DOT":-9.0e-8,"MEAN_MOTION_DDOT":0},{"OBJECT_NAME":"STELLA","OBJECT_ID":"1993-061B","EPOCH":"2026-03-14T15:32:49.134624","MEAN_MOTION":14.27467718,"ECCENTRICITY":0.00069733,"INCLINATION":98.7831,"RA_OF_ASC_NODE":137.5178,"ARG_OF_PERICENTER":144.3661,"MEAN_ANOMALY":340.1166,"EPHEMERIS_TYPE":0,"CLASSIFICATION_TYPE":"U","NORAD_CAT_ID":22824,"ELEMENT_SET_NO":999,"REV_AT_EPOCH":69128,"BSTAR":6.735577e-6,"MEAN_MOTION_DOT":-2.9e-7,"MEAN_MOTION_DDOT":0},{"OBJECT_NAME":"LARETS","OBJECT_ID":"2003-042F","EPOCH":"2026-03-14T13:59:54.398400","MEAN_MOTION":14.638501,"ECCENTRICITY":0.00117239,"INCLINATION":98.4025,"RA_OF_ASC_NODE":233.8589,"ARG_OF_PERICENTER":336.9128,"MEAN_ANOMALY":23.1545,"EPHEMERIS_TYPE":0,"CLASSIFICATION_TYPE":"U","NORAD_CAT_ID":27944,"ELEMENT_SET_NO":999,"REV_AT_EPOCH":19952,"BSTAR":2.9268879e-5,"MEAN_MOTION_DOT":1.02e-6,"MEAN_MOTION_DDOT":0},{"OBJECT_NAME":"LARES","OBJECT_ID":"2012-006A","EPOCH":"2026-03-14T14:31:34.096800","MEAN_MOTION":12.54932283,"ECCENTRICITY":0.00071806,"INCLINATION":69.4881,"RA_OF_ASC_NODE":93.8016,"ARG_OF_PERICENTER":144.8451,"MEAN_ANOMALY":215.305,"EPHEMERIS_TYPE":0,"CLASSIFICATION_TYPE":"U","NORAD_CAT_ID":38077,"ELEMENT_SET_NO":999,"REV_AT_EPOCH":64520,"BSTAR":0.00011062985,"MEAN_MOTION_DOT":-2.1e-7,"MEAN_MOTION_DDOT":0},{"OBJECT_NAME":"LARES-2","OBJECT_ID":"2022-080A","EPOCH":"2026-03-06T00:34:32.699712","MEAN_MOTION":6.38965015,"ECCENTRICITY":0.00053097,"INCLINATION":70.1755,"RA_OF_ASC_NODE":340.7064,"ARG_OF_PERICENTER":356.7815,"MEAN_ANOMALY":3.2821,"EPHEMERIS_TYPE":0,"CLASSIFICATION_TYPE":"U","NORAD_CAT_ID":53105,"ELEMENT_SET_NO":999,"REV_AT_EPOCH":8507,"BSTAR":0,"MEAN_MOTION_DOT":-2.8e-7,"MEAN_MOTION_DDOT":0}]
